{
    "links": {
        "self": "http://www.neowsapp.com/rest/v1/neo/3763597?api_key=iIulBulltgU6a56xZRHN4H3l9WmuAYTsLGpBGhQ2"
    },
    "id": "3763597",
    "neo_reference_id": "3763597",
    "name": "(2016 VR4)",
    "designation": "2016 VR4",
    "nasa_jpl_url": "http://ssd.jpl.nasa.gov/sbdb.cgi?sstr=3763597",
    "absolute_magnitude_h": 28.9,
    "estimated_diameter": {
        "kilometers": {
            "estimated_diameter_min": 0.004411182,
            "estimated_diameter_max": 0.0098637028
        },
        "meters": {
            "estimated_diameter_min": 4.411182,
            "estimated_diameter_max": 9.8637028131
        },
        "miles": {
            "estimated_diameter_min": 0.0027409806,
            "estimated_diameter_max": 0.0061290189
        },
        "feet": {
            "estimated_diameter_min": 14.4723823528,
            "estimated_diameter_max": 32.3612307372
        }
    },
    "is_potentially_hazardous_asteroid": false,
    "close_approach_data": [
        {
            "close_approach_date": "2016-11-09",
            "close_approach_date_full": "2016-Nov-09 03:07",
            "epoch_date_close_approach": 1478660820000,
            "relative_velocity": {
                "kilometers_per_second": "10.139777882",
                "kilometers_per_hour": "36503.2003753681",
                "miles_per_hour": "22681.6691443503"
            },
            "miss_distance": {
                "astronomical": "0.0031229993",
                "lunar": "1.2148467277",
                "kilometers": "467194.043291491",
                "miles": "290300.9170689358"
            },
            "orbiting_body": "Moon"
        },
        {
            "close_approach_date": "2016-11-09",
            "close_approach_date_full": "2016-Nov-09 06:16",
            "epoch_date_close_approach": 1478672160000,
            "relative_velocity": {
                "kilometers_per_second": "10.9867619969",
                "kilometers_per_hour": "39552.3431889757",
                "miles_per_hour": "24576.2879109499"
            },
            "miss_distance": {
                "astronomical": "0.005027441",
                "lunar": "1.955674549",
                "kilometers": "752094.46515067",
                "miles": "467329.830272446"
            },
            "orbiting_body": "Earth"
        }
    ],
    "orbital_data": {
        "orbit_id": "2",
        "orbit_determination_date": "2017-04-06 08:22:15",
        "first_observation_date": "2016-11-10",
        "last_observation_date": "2016-11-11",
        "data_arc_in_days": 1,
        "observations_used": 17,
        "orbit_uncertainty": "8",
        "minimum_orbit_intersection": ".00278067",
        "jupiter_tisserand_invariant": "3.203",
        "epoch_osculation": "2457703.5",
        "eccentricity": ".6131517248985076",
        "semi_major_axis": "2.448478055297053",
        "inclination": "6.178939616877801",
        "ascending_node_longitude": "47.56073646833807",
        "orbital_period": "1399.402839589297",
        "perihelion_distance": ".9471895123155215",
        "perihelion_argument": "330.4709424428713",
        "aphelion_distance": "3.949766598278584",
        "perihelion_time": "2457679.833531372251",
        "mean_anomaly": "6.088260267136592",
        "mean_motion": ".2572525864715655",
        "equinox": "J2000",
        "orbit_class": {
            "orbit_class_type": "APO",
            "orbit_class_description": "Near-Earth asteroid orbits which cross the Earth’s orbit similar to that of 1862 Apollo",
            "orbit_class_range": "a (semi-major axis) > 1.0 AU; q (perihelion) < 1.017 AU"
        }
    },
    "is_sentry_object": false
}